COSMOS 2576             
1 59773U 24092A   26068.82603826  .00015211  00000+0  56283-3 0  9991
2 59773  97.4253 186.0053 0005946 159.7731 200.3745 15.27760963101271
STARLINK-35411          
1 66560U 25268D   26068.19580642  .00030060  00000+0  10975-2 0  9995
2 66560  42.9996 349.8996 0001158 286.5987  73.4737 15.27576721 17880
